<?xml version="1.0" encoding="UTF-8"?>
<ndm xmlns:xsi="http://www.w3.org/2001/XMLSchema-instance" xsi:noNamespaceSchemaLocation="https://sanaregistry.org/r/ndmxml_unqualified/ndmxml-2.0.0-master-2.0.xsd">
<omm id="CCSDS_OMM_VERS" version="2.0">
<header><CREATION_DATE/><ORIGINATOR/></header><body><segment><metadata><OBJECT_NAME>KUIPER-00039</OBJECT_NAME><OBJECT_ID>2025-134A</OBJECT_ID><CENTER_NAME>EARTH</CENTER_NAME><REF_FRAME>TEME</REF_FRAME><TIME_SYSTEM>UTC</TIME_SYSTEM><MEAN_ELEMENT_THEORY>SGP4</MEAN_ELEMENT_THEORY></metadata><data><meanElements><EPOCH>2025-10-21T22:10:19.299072</EPOCH><MEAN_MOTION>14.79943939</MEAN_MOTION><ECCENTRICITY>.00118721</ECCENTRICITY><INCLINATION>51.8987</INCLINATION><RA_OF_ASC_NODE>126.6963</RA_OF_ASC_NODE><ARG_OF_PERICENTER>189.7226</ARG_OF_PERICENTER><MEAN_ANOMALY>170.3508</MEAN_ANOMALY></meanElements><tleParameters><EPHEMERIS_TYPE>0</EPHEMERIS_TYPE><CLASSIFICATION_TYPE>U</CLASSIFICATION_TYPE><NORAD_CAT_ID>64500</NORAD_CAT_ID><ELEMENT_SET_NO>999</ELEMENT_SET_NO><REV_AT_EPOCH>1952</REV_AT_EPOCH><BSTAR>-.23519686E-3</BSTAR><MEAN_MOTION_DOT>-.2019E-4</MEAN_MOTION_DOT><MEAN_MOTION_DDOT>0</MEAN_MOTION_DDOT></tleParameters></data></segment></body></omm>
<omm id="CCSDS_OMM_VERS" version="2.0">
<header><CREATION_DATE/><ORIGINATOR/></header><body><segment><metadata><OBJECT_NAME>KUIPER-00040</OBJECT_NAME><OBJECT_ID>2025-134B</OBJECT_ID><CENTER_NAME>EARTH</CENTER_NAME><REF_FRAME>TEME</REF_FRAME><TIME_SYSTEM>UTC</TIME_SYSTEM><MEAN_ELEMENT_THEORY>SGP4</MEAN_ELEMENT_THEORY></metadata><data><meanElements><EPOCH>2025-10-21T21:52:33.807360</EPOCH><MEAN_MOTION>14.79938600</MEAN_MOTION><ECCENTRICITY>.00183726</ECCENTRICITY><INCLINATION>51.8981</INCLINATION><RA_OF_ASC_NODE>137.9167</RA_OF_ASC_NODE><ARG_OF_PERICENTER>169.3475</ARG_OF_PERICENTER><MEAN_ANOMALY>190.7880</MEAN_ANOMALY></meanElements><tleParameters><EPHEMERIS_TYPE>0</EPHEMERIS_TYPE><CLASSIFICATION_TYPE>U</CLASSIFICATION_TYPE><NORAD_CAT_ID>64501</NORAD_CAT_ID><ELEMENT_SET_NO>999</ELEMENT_SET_NO><REV_AT_EPOCH>1936</REV_AT_EPOCH><BSTAR>.6841156E-3</BSTAR><MEAN_MOTION_DOT>.5009E-4</MEAN_MOTION_DOT><MEAN_MOTION_DDOT>0</MEAN_MOTION_DDOT></tleParameters></data></segment></body></omm>
<omm id="CCSDS_OMM_VERS" version="2.0">
<header><CREATION_DATE/><ORIGINATOR/></header><body><segment><metadata><OBJECT_NAME>KUIPER-00041</OBJECT_NAME><OBJECT_ID>2025-134C</OBJECT_ID><CENTER_NAME>EARTH</CENTER_NAME><REF_FRAME>TEME</REF_FRAME><TIME_SYSTEM>UTC</TIME_SYSTEM><MEAN_ELEMENT_THEORY>SGP4</MEAN_ELEMENT_THEORY></metadata><data><meanElements><EPOCH>2025-10-21T21:51:01.257408</EPOCH><MEAN_MOTION>14.79949966</MEAN_MOTION><ECCENTRICITY>.00148536</ECCENTRICITY><INCLINATION>51.8975</INCLINATION><RA_OF_ASC_NODE>139.2790</RA_OF_ASC_NODE><ARG_OF_PERICENTER>161.9361</ARG_OF_PERICENTER><MEAN_ANOMALY>198.2132</MEAN_ANOMALY></meanElements><tleParameters><EPHEMERIS_TYPE>0</EPHEMERIS_TYPE><CLASSIFICATION_TYPE>U</CLASSIFICATION_TYPE><NORAD_CAT_ID>64502</NORAD_CAT_ID><ELEMENT_SET_NO>999</ELEMENT_SET_NO><REV_AT_EPOCH>1934</REV_AT_EPOCH><BSTAR>.73631472E-3</BSTAR><MEAN_MOTION_DOT>.5405E-4</MEAN_MOTION_DOT><MEAN_MOTION_DDOT>0</MEAN_MOTION_DDOT></tleParameters></data></segment></body></omm>
<omm id="CCSDS_OMM_VERS" version="2.0">
<header><CREATION_DATE/><ORIGINATOR/></header><body><segment><metadata><OBJECT_NAME>KUIPER-00042</OBJECT_NAME><OBJECT_ID>2025-134D</OBJECT_ID><CENTER_NAME>EARTH</CENTER_NAME><REF_FRAME>TEME</REF_FRAME><TIME_SYSTEM>UTC</TIME_SYSTEM><MEAN_ELEMENT_THEORY>SGP4</MEAN_ELEMENT_THEORY></metadata><data><meanElements><EPOCH>2025-10-21T21:56:27.045888</EPOCH><MEAN_MOTION>14.79941704</MEAN_MOTION><ECCENTRICITY>.00133656</ECCENTRICITY><INCLINATION>51.8973</INCLINATION><RA_OF_ASC_NODE>135.2609</RA_OF_ASC_NODE><ARG_OF_PERICENTER>172.9043</ARG_OF_PERICENTER><MEAN_ANOMALY>187.2111</MEAN_ANOMALY></meanElements><tleParameters><EPHEMERIS_TYPE>0</EPHEMERIS_TYPE><CLASSIFICATION_TYPE>U</CLASSIFICATION_TYPE><NORAD_CAT_ID>64503</NORAD_CAT_ID><ELEMENT_SET_NO>999</ELEMENT_SET_NO><REV_AT_EPOCH>1940</REV_AT_EPOCH><BSTAR>.76315501E-3</BSTAR><MEAN_MOTION_DOT>.5608E-4</MEAN_MOTION_DOT><MEAN_MOTION_DDOT>0</MEAN_MOTION_DDOT></tleParameters></data></segment></body></omm>
<omm id="CCSDS_OMM_VERS" version="2.0">
<header><CREATION_DATE/><ORIGINATOR/></header><body><segment><metadata><OBJECT_NAME>KUIPER-00043</OBJECT_NAME><OBJECT_ID>2025-134E</OBJECT_ID><CENTER_NAME>EARTH</CENTER_NAME><REF_FRAME>TEME</REF_FRAME><TIME_SYSTEM>UTC</TIME_SYSTEM><MEAN_ELEMENT_THEORY>SGP4</MEAN_ELEMENT_THEORY></metadata><data><meanElements><EPOCH>2025-10-21T22:08:12.043968</EPOCH><MEAN_MOTION>14.79941065</MEAN_MOTION><ECCENTRICITY>.00043116</ECCENTRICITY><INCLINATION>51.8999</INCLINATION><RA_OF_ASC_NODE>127.6602</RA_OF_ASC_NODE><ARG_OF_PERICENTER>156.0426</ARG_OF_PERICENTER><MEAN_ANOMALY>204.0738</MEAN_ANOMALY></meanElements><tleParameters><EPHEMERIS_TYPE>0</EPHEMERIS_TYPE><CLASSIFICATION_TYPE>U</CLASSIFICATION_TYPE><NORAD_CAT_ID>64504</NORAD_CAT_ID><ELEMENT_SET_NO>999</ELEMENT_SET_NO><REV_AT_EPOCH>1951</REV_AT_EPOCH><BSTAR>.64773996E-3</BSTAR><MEAN_MOTION_DOT>.4721E-4</MEAN_MOTION_DOT><MEAN_MOTION_DDOT>0</MEAN_MOTION_DDOT></tleParameters></data></segment></body></omm>
<omm id="CCSDS_OMM_VERS" version="2.0">
<header><CREATION_DATE/><ORIGINATOR/></header><body><segment><metadata><OBJECT_NAME>KUIPER-00044</OBJECT_NAME><OBJECT_ID>2025-134F</OBJECT_ID><CENTER_NAME>EARTH</CENTER_NAME><REF_FRAME>TEME</REF_FRAME><TIME_SYSTEM>UTC</TIME_SYSTEM><MEAN_ELEMENT_THEORY>SGP4</MEAN_ELEMENT_THEORY></metadata><data><meanElements><EPOCH>2025-10-21T21:48:37.994112</EPOCH><MEAN_MOTION>14.79935444</MEAN_MOTION><ECCENTRICITY>.00129979</ECCENTRICITY><INCLINATION>51.8972</INCLINATION><RA_OF_ASC_NODE>140.2817</RA_OF_ASC_NODE><ARG_OF_PERICENTER>170.1932</ARG_OF_PERICENTER><MEAN_ANOMALY>189.9286</MEAN_ANOMALY></meanElements><tleParameters><EPHEMERIS_TYPE>0</EPHEMERIS_TYPE><CLASSIFICATION_TYPE>U</CLASSIFICATION_TYPE><NORAD_CAT_ID>64505</NORAD_CAT_ID><ELEMENT_SET_NO>999</ELEMENT_SET_NO><REV_AT_EPOCH>1933</REV_AT_EPOCH><BSTAR>.6923185E-3</BSTAR><MEAN_MOTION_DOT>.5065E-4</MEAN_MOTION_DOT><MEAN_MOTION_DDOT>0</MEAN_MOTION_DDOT></tleParameters></data></segment></body></omm>
<omm id="CCSDS_OMM_VERS" version="2.0">
<header><CREATION_DATE/><ORIGINATOR/></header><body><segment><metadata><OBJECT_NAME>KUIPER-00046</OBJECT_NAME><OBJECT_ID>2025-134G</OBJECT_ID><CENTER_NAME>EARTH</CENTER_NAME><REF_FRAME>TEME</REF_FRAME><TIME_SYSTEM>UTC</TIME_SYSTEM><MEAN_ELEMENT_THEORY>SGP4</MEAN_ELEMENT_THEORY></metadata><data><meanElements><EPOCH>2025-10-21T20:13:15.517344</EPOCH><MEAN_MOTION>14.79597258</MEAN_MOTION><ECCENTRICITY>.00121983</ECCENTRICITY><INCLINATION>51.8967</INCLINATION><RA_OF_ASC_NODE>137.0160</RA_OF_ASC_NODE><ARG_OF_PERICENTER>179.2000</ARG_OF_PERICENTER><MEAN_ANOMALY>180.8984</MEAN_ANOMALY></meanElements><tleParameters><EPHEMERIS_TYPE>0</EPHEMERIS_TYPE><CLASSIFICATION_TYPE>U</CLASSIFICATION_TYPE><NORAD_CAT_ID>64506</NORAD_CAT_ID><ELEMENT_SET_NO>999</ELEMENT_SET_NO><REV_AT_EPOCH>1937</REV_AT_EPOCH><BSTAR>.65829779E-3</BSTAR><MEAN_MOTION_DOT>.4765E-4</MEAN_MOTION_DOT><MEAN_MOTION_DDOT>0</MEAN_MOTION_DDOT></tleParameters></data></segment></body></omm>
<omm id="CCSDS_OMM_VERS" version="2.0">
<header><CREATION_DATE/><ORIGINATOR/></header><body><segment><metadata><OBJECT_NAME>KUIPER-00047</OBJECT_NAME><OBJECT_ID>2025-134H</OBJECT_ID><CENTER_NAME>EARTH</CENTER_NAME><REF_FRAME>TEME</REF_FRAME><TIME_SYSTEM>UTC</TIME_SYSTEM><MEAN_ELEMENT_THEORY>SGP4</MEAN_ELEMENT_THEORY></metadata><data><meanElements><EPOCH>2025-10-21T21:06:21.816288</EPOCH><MEAN_MOTION>15.20833387</MEAN_MOTION><ECCENTRICITY>.00103831</ECCENTRICITY><INCLINATION>51.8627</INCLINATION><RA_OF_ASC_NODE>112.6193</RA_OF_ASC_NODE><ARG_OF_PERICENTER>196.4220</ARG_OF_PERICENTER><MEAN_ANOMALY>163.6425</MEAN_ANOMALY></meanElements><tleParameters><EPHEMERIS_TYPE>0</EPHEMERIS_TYPE><CLASSIFICATION_TYPE>U</CLASSIFICATION_TYPE><NORAD_CAT_ID>64507</NORAD_CAT_ID><ELEMENT_SET_NO>999</ELEMENT_SET_NO><REV_AT_EPOCH>1971</REV_AT_EPOCH><BSTAR>-.35956393E-2</BSTAR><MEAN_MOTION_DOT>-.79999E-3</MEAN_MOTION_DOT><MEAN_MOTION_DDOT>0</MEAN_MOTION_DDOT></tleParameters></data></segment></body></omm>
<omm id="CCSDS_OMM_VERS" version="2.0">
<header><CREATION_DATE/><ORIGINATOR/></header><body><segment><metadata><OBJECT_NAME>KUIPER-00048</OBJECT_NAME><OBJECT_ID>2025-134J</OBJECT_ID><CENTER_NAME>EARTH</CENTER_NAME><REF_FRAME>TEME</REF_FRAME><TIME_SYSTEM>UTC</TIME_SYSTEM><MEAN_ELEMENT_THEORY>SGP4</MEAN_ELEMENT_THEORY></metadata><data><meanElements><EPOCH>2025-10-22T00:00:02.999808</EPOCH><MEAN_MOTION>15.10833840</MEAN_MOTION><ECCENTRICITY>.00024828</ECCENTRICITY><INCLINATION>51.9024</INCLINATION><RA_OF_ASC_NODE>111.0809</RA_OF_ASC_NODE><ARG_OF_PERICENTER>234.1091</ARG_OF_PERICENTER><MEAN_ANOMALY>321.4718</MEAN_ANOMALY></meanElements><tleParameters><EPHEMERIS_TYPE>0</EPHEMERIS_TYPE><CLASSIFICATION_TYPE>U</CLASSIFICATION_TYPE><NORAD_CAT_ID>64508</NORAD_CAT_ID><ELEMENT_SET_NO>999</ELEMENT_SET_NO><REV_AT_EPOCH>555</REV_AT_EPOCH><BSTAR>-.28046235E-1</BSTAR><MEAN_MOTION_DOT>-.444096E-2</MEAN_MOTION_DOT><MEAN_MOTION_DDOT>0</MEAN_MOTION_DDOT></tleParameters></data></segment></body></omm>

</ndm>
